[
  {
    "name": "KUIPER-00103",
    "noradId": "65141",
    "line1": "1 65141U 25171K   26198.35499238  .00001629  00000+0  24261-3 0  9997",
    "line2": "2 65141  51.8998 317.1750 0000369 108.4129 251.6873 14.79930286 51913"
  },
  {
    "name": "KUIPER-00104",
    "noradId": "65142",
    "line1": "1 65142U 25171L   26198.30094651  .00000406  00000+0  82252-4 0  9990",
    "line2": "2 65142  51.9032 304.9147 0000357 102.4310 257.6693 14.79931606 52083"
  },
  {
    "name": "KUIPER-00105",
    "noradId": "65143",
    "line1": "1 65143U 25171M   26198.32662922  .00001543  00000+0  23127-3 0  9993",
    "line2": "2 65143  51.9017 312.4019 0000482 120.1138 239.9872 14.79938512 51986"
  },
  {
    "name": "KUIPER-00106",
    "noradId": "65144",
    "line1": "1 65144U 25171N   26198.50994056  .00000387  00000+0  79790-4 0  9993",
    "line2": "2 65144  51.9021 290.3541 0000475  88.5677 271.5340 14.79932245 52310"
  },
  {
    "name": "KUIPER-00107",
    "noradId": "65145",
    "line1": "1 65145U 25171P   26198.27797205  .00000352  00000+0  75153-4 0  9996",
    "line2": "2 65145  51.9011 295.0581 0000363 108.8479 251.2523 14.79933142 52223"
  },
  {
    "name": "KUIPER-00108",
    "noradId": "65146",
    "line1": "1 65146U 25171Q   26198.56837750 -.00000119  00000+0  13434-4 0  9995",
    "line2": "2 65146  51.9042 306.3102 0000391 126.7812 233.3187 14.79932437 52092"
  },
  {
    "name": "KUIPER-00109",
    "noradId": "65147",
    "line1": "1 65147U 25171R   26198.53999408  .00001470  00000+0  22179-3 0  9997",
    "line2": "2 65147  51.9028 301.3793 0000351 112.4048 247.6951 14.79936550 52151"
  },
  {
    "name": "KUIPER-00110",
    "noradId": "65148",
    "line1": "1 65148U 25171S   26198.35770062 -.00000485  00000+0 -34621-4 0  9994",
    "line2": "2 65148  51.8998 314.7434 0000274 333.1699  26.9249 14.79930244 51943"
  },
  {
    "name": "KUIPER-00111",
    "noradId": "65149",
    "line1": "1 65149U 25171T   26198.58863659  .00001587  00000+0  23703-3 0  9995",
    "line2": "2 65149  51.8992 318.5995 0000451 119.2183 240.8824 14.79939496 51911"
  },
  {
    "name": "KUIPER-00112",
    "noradId": "65150",
    "line1": "1 65150U 25171U   26198.30365220  .00000400  00000+0  81423-4 0  9995",
    "line2": "2 65150  51.9010 302.4726 0000374 101.5201 258.5804 14.79932356 52113"
  },
  {
    "name": "KUIPER-00114",
    "noradId": "65151",
    "line1": "1 65151U 25171V   26198.31584018  .00001563  00000+0  23396-3 0  9990",
    "line2": "2 65151  51.9011 322.3889 0000501 112.4915 247.6100 14.79930874 51830"
  },
  {
    "name": "KUIPER-00115",
    "noradId": "65152",
    "line1": "1 65152U 25171W   26198.59405002  .00000468  00000+0  90412-4 0  9993",
    "line2": "2 65152  51.9027 313.6596 0000443 132.3783 227.7217 14.79929332 51986"
  },
  {
    "name": "KUIPER-00116",
    "noradId": "65153",
    "line1": "1 65153U 25171X   26198.62240313 -.00004727  00000+0 -59134-3 0  9999",
    "line2": "2 65153  51.9012 318.5695 0001133  97.8424 262.2667 14.79944394 51910"
  },
  {
    "name": "KUIPER-00118",
    "noradId": "65154",
    "line1": "1 65154U 25171Y   26198.61970839  .00001440  00000+0  21780-3 0  9995",
    "line2": "2 65154  51.9009 321.0320 0000445 110.9884 249.1126 14.79931570 51885"
  },
  {
    "name": "KUIPER-00119",
    "noradId": "65155",
    "line1": "1 65155U 25171Z   26198.29557109  .00000229  00000+0  58973-4 0  9990",
    "line2": "2 65155  51.9016 310.0609 0000111  29.5416 330.5553 14.79930424 52009"
  },
  {
    "name": "KUIPER-00120",
    "noradId": "65762",
    "line1": "1 65762U 25217A   26198.39733184  .00001047  00000+0  16630-3 0  9997",
    "line2": "2 65762  51.8979 199.4883 0000499  63.2956 296.8058 14.79935664 43944"
  },
  {
    "name": "KUIPER-00132",
    "noradId": "65763",
    "line1": "1 65763U 25217B   26197.93847692  .00014126  00000+0  31997-3 0  9992",
    "line2": "2 65763  51.8552  94.1861 0007193  73.0474 287.1303 15.43356574 45364"
  },
  {
    "name": "KUIPER-00133",
    "noradId": "65764",
    "line1": "1 65764U 25217C   26198.29605061  .00000991  00000+0  15899-3 0  9993",
    "line2": "2 65764  51.9022 200.0466 0000491  63.1080 296.9933 14.79935870 43932"
  },
  {
    "name": "KUIPER-00139",
    "noradId": "65765",
    "line1": "1 65765U 25217D   26198.60120474 -.00000313  00000+0 -12014-4 0  9996",
    "line2": "2 65765  51.8979 166.1541 0000704  75.2396 284.8645 14.79928732 44431"
  },
  {
    "name": "KUIPER-00142",
    "noradId": "65766",
    "line1": "1 65766U 25217E   26198.34864781 -.00000656  00000+0 -57074-4 0  9999",
    "line2": "2 65766  51.8985 182.2326 0000758  46.4507 313.6518 14.79928926 44189"
  },
  {
    "name": "KUIPER-00145",
    "noradId": "65767",
    "line1": "1 65767U 25217F   26198.34604568  .00001132  00000+0  17753-3 0  9992",
    "line2": "2 65767  51.8996 184.7654 0000626  61.1489 298.9536 14.79922911 44149"
  },
  {
    "name": "KUIPER-00147",
    "noradId": "65768",
    "line1": "1 65768U 25217G   26198.44454006 -.00008379  00000+0 -10707-2 0  9997",
    "line2": "2 65768  51.8984 186.8062 0000113 238.2208 121.8744 14.79964759 44129"
  },
  {
    "name": "KUIPER-00148",
    "noradId": "65769",
    "line1": "1 65769U 25217H   26198.58335648 -.00035538  00000+0 -46536-2 0  9999",
    "line2": "2 65769  51.9035 168.7093 0000555  48.3110 231.3315 14.79965631  5211"
  },
  {
    "name": "KUIPER-00150",
    "noradId": "65770",
    "line1": "1 65770U 25217J   26198.36623967  .00000906  00000+0  14779-3 0  9995",
    "line2": "2 65770  51.9012 197.1919 0000600  74.7794 285.3234 14.79942145 43972"
  },
  {
    "name": "KUIPER-00151",
    "noradId": "65771",
    "line1": "1 65771U 25217K   26198.50938373 -.00000910  00000+0 -90327-4 0  9993",
    "line2": "2 65771  51.8997 189.0565 0000640  50.6672 309.4347 14.79928682 44102"
  },
  {
    "name": "KUIPER-00152",
    "noradId": "65772",
    "line1": "1 65772U 25217L   26198.62421292  .00001031  00000+0  16425-3 0  9993",
    "line2": "2 65772  51.8997 176.0317 0000522  67.1297 292.9721 14.79934031 44296"
  },
  {
    "name": "KUIPER-00153",
    "noradId": "65773",
    "line1": "1 65773U 25217M   26198.62957323  .00001123  00000+0  17632-3 0  9996",
    "line2": "2 65773  51.9020 171.0831 0000653  73.5277 286.5757 14.79928223 44367"
  },
  {
    "name": "KUIPER-00155",
    "noradId": "65774",
    "line1": "1 65774U 25217N   26198.25405373  .00001604  00000+0  23934-3 0  9995",
    "line2": "2 65774  51.9026 145.2070 0000817  74.1705 285.9347 14.79941097 44695"
  },
  {
    "name": "KUIPER-00156",
    "noradId": "65775",
    "line1": "1 65775U 25217P   26198.32572533  .00001202  00000+0  18667-3 0  9998",
    "line2": "2 65775  51.9021 172.4093 0000706  58.8491 301.2540 14.79933446 44311"
  },
  {
    "name": "KUIPER-00163",
    "noradId": "65777",
    "line1": "1 65777U 25217R   26198.42168981  .00532904  15177-3  62929-3 0  9992",
    "line2": "2 65777  51.8722 105.8796 0001534 173.9586 186.1450 16.07975866 45231"
  },
  {
    "name": "KUIPER-00165",
    "noradId": "65778",
    "line1": "1 65778U 25217S   26198.11229777 -.00000099  00000+0  15988-4 0  9995",
    "line2": "2 65778  51.8992 183.2977 0000630  80.3289 279.7744 14.79925296 44142"
  },
  {
    "name": "KUIPER-00166",
    "noradId": "65779",
    "line1": "1 65779U 25217T   26198.63216672  .00011601  00000+0  15446-2 0  9990",
    "line2": "2 65779  51.9017 168.5475 0000794  60.5774 299.5268 14.80030339 44396"
  },
  {
    "name": "KUIPER-00167",
    "noradId": "65780",
    "line1": "1 65780U 25217U   26198.37160628 -.00000320  00000+0 -12998-4 0  9991",
    "line2": "2 65780  51.8944 192.0587 0000599  62.8403 297.2621 14.79926275 44040"
  },
  {
    "name": "KUIPER-00168",
    "noradId": "65781",
    "line1": "1 65781U 25217V   26198.12043655  .00001140  00000+0  17853-3 0  9998",
    "line2": "2 65781  51.9002 175.7663 0000618  61.1186 298.9838 14.79931309 44257"
  },
  {
    "name": "KUIPER-00169",
    "noradId": "65782",
    "line1": "1 65782U 25217W   26198.31760204 -.00000134  00000+0  11408-4 0  9990",
    "line2": "2 65782  51.8997 179.9038 0000560  97.7946 262.3080 14.79930593 44211"
  },
  {
    "name": "KUIPER-00170",
    "noradId": "65783",
    "line1": "1 65783U 25217X   26198.37975685  .00001025  00000+0  16345-3 0  9991",
    "line2": "2 65783  51.8979 184.5858 0000558  61.1277 298.9741 14.79931014 44154"
  },
  {
    "name": "KUIPER-00172",
    "noradId": "65785",
    "line1": "1 65785U 25217Z   26198.63496475  .00001221  00000+0  18906-3 0  9990",
    "line2": "2 65785  51.8986 165.9870 0000937  88.6883 271.4187 14.79940806 44439"
  },
  {
    "name": "KUIPER-00173",
    "noradId": "65786",
    "line1": "1 65786U 25217AA  26198.35133450 -.00000870  00000+0 -85193-4 0  9995",
    "line2": "2 65786  51.8998 179.7505 0000809  58.2327 301.8714 14.79924053 44211"
  },
  {
    "name": "KUIPER-00174",
    "noradId": "65787",
    "line1": "1 65787U 25217AB  26198.08663363 -.00000057  00000+0  21543-4 0  9992",
    "line2": "2 65787  51.9004 175.9692 0000678  57.0527 303.0501 14.79921375 44244"
  },
  {
    "name": "KUIPER-00176",
    "noradId": "65788",
    "line1": "1 65788U 25217AC  26198.34058616  .00001037  00000+0  16506-3 0  9991",
    "line2": "2 65788  51.8991 189.7794 0000467  69.7522 290.3490 14.79929248 44079"
  },
  {
    "name": "KUIPER-00101",
    "noradId": "65947",
    "line1": "1 65947U 25228A   26198.55523055  .00001472  00000+0  22208-3 0  9996",
    "line2": "2 65947  51.8982 146.2877 0000767  76.3089 283.7959 14.79937483 42468"
  },
  {
    "name": "KUIPER-00113",
    "noradId": "65948",
    "line1": "1 65948U 25228B   26198.25674966  .00000516  00000+0  96728-4 0  9999",
    "line2": "2 65948  51.8992 142.6284 0000837  66.5136 293.5914 14.79931289 42484"
  },
  {
    "name": "KUIPER-00117",
    "noradId": "65949",
    "line1": "1 65949U 25228C   26198.55792018  .00001487  00000+0  22401-3 0  9996",
    "line2": "2 65949  51.8981 143.7959 0000828  71.2801 288.8251 14.79945502 42491"
  }
]